STARLINK-2703           
1 48452U 21040AA  26068.56243227  .00000180  00000+0  18217-4 0  9994
2 48452  53.1622 178.7354 0001645 114.5451 245.5721 15.30211430266668
ION SCV-004             
1 50993U 22002K   26068.68892644  .00006538  00000+0  23198-3 0  9998
2 50993  97.2961 128.2294 0007216   1.6783 358.4480 15.29369331230088
